     2.100          NAVIGATION                              RINEX VERSION / TYPE
fic2rin                                 09/30/2017 00:10:00 PGM / RUN BY / DATE
                                                            END OF HEADER
25 17  9 29 20  0  0.0 -.464458018541D-03 -.636646291241D-11  .000000000000D+00
     .200000000000D+02  .545312500000D+02  .389587656461D-08  .306147396565D+01
     .284798443317D-05  .658088969067D-02  .805221498013D-05  .515375074577D+04
     .504000000000D+06  .186264514923D-08 -.461754072768D+00 -.447034835815D-07
     .976447695412D+00  .230156250000D+03  .821439239327D+00 -.772710757933D-08
     .800033324599D-10  .100000000000D+01  .196800000000D+04  .000000000000D+00
     .240000000000D+01  .000000000000D+00  .558793544769D-08  .200000000000D+02
     .496806000000D+06  .400000000000D+01
26 17  9 29 20  0  0.0 -.411862973124D-03  .112549969344D-10  .000000000000D+00
     .210000000000D+02  .486875000000D+02  .437018203562D-08  .249696501122D+01
     .255368649960D-05  .194559420925D-02  .747852027416D-05  .515377944756D+04
     .504000000000D+06 -.149011611938D-07 -.479386353737D+00  .372529029846D-08
     .958124068616D+00  .234406250000D+03 -.242307715032D-01 -.805533553706D-08
     .571452374714D-11  .100000000000D+01  .196800000000D+04  .000000000000D+00
     .240000000000D+01  .000000000000D+00  .745058059692D-08  .210000000000D+02
     .496806000000D+06  .400000000000D+01
27 17  9 29 20  0  0.0  .331228133291D-03  .466116034659D-11  .000000000000D+00
     .190000000000D+02 -.103125000000D+01  .423731935850D-08  .673443231317D+00
    -.931322574615D-07  .493831303902D-02  .437349081039D-05  .515367395210D+04
     .504000000000D+06  .298023223877D-07  .577295093972D+00  .707805156708D-07
     .975940526583D+00  .303937500000D+03  .392986603618D+00 -.814676791701D-08
     .107147320259D-09  .100000000000D+01  .196800000000D+04  .000000000000D+00
     .240000000000D+01  .000000000000D+00  .139698386192D-08  .190000000000D+02
     .496806000000D+06  .400000000000D+01
28 17  9 29 20  0  0.0  .649894122034D-03  .318323145621D-11  .000000000000D+00
     .240000000000D+02  .573750000000D+02  .373336979555D-08  .155606632169D+01
     .265799462795D-05  .198585655307D-01  .759586691856D-05  .515366209793D+04
     .504000000000D+06  .949949026108D-07 -.381646258699D+00 -.521540641785D-06
     .987948468316D+00  .245093750000D+03 -.156257756525D+01 -.777960976626D-08
     .135362781260D-09  .100000000000D+01  .196800000000D+04  .000000000000D+00
     .485000000000D+01  .000000000000D+00 -.111758708954D-07  .240000000000D+02
     .496806000000D+06  .400000000000D+01
29 17  9 29 20  0  0.0  .557099469006D-03 -.454747350886D-11  .000000000000D+00
     .790000000000D+02 -.334375000000D+01  .412231456809D-08  .190410899515D+01
    -.176951289177D-06  .479242531583D-03  .401400029659D-05  .515355883217D+04
     .504000000000D+06  .391155481339D-07  .640250929410D+00  .428408384323D-07
     .982228657583D+00  .311218750000D+03  .933004973756D+00 -.806640742682D-08
     .142148778210D-09  .100000000000D+01  .196800000000D+04  .000000000000D+00
     .240000000000D+01  .000000000000D+00 -.102445483208D-07  .790000000000D+02
     .496806000000D+06  .400000000000D+01
30 17  9 29 20  0  0.0  .137697905302D-03 -.227373675443D-11  .000000000000D+00
     .150000000000D+02  .204062500000D+02  .477591322167D-08 -.220623931596D+01
     .948086380959D-06  .304304796737D-02  .834092497826D-05  .515362624550D+04
     .504000000000D+06 -.111758708954D-07 -.145510604113D+01 -.633299350739D-07
     .946403256740D+00  .210593750000D+03 -.304979612407D+01 -.815248244076D-08
    -.382873091058D-09  .100000000000D+01  .196800000000D+04  .000000000000D+00
     .240000000000D+01  .000000000000D+00  .372529029846D-08  .150000000000D+02
     .496806000000D+06  .400000000000D+01
31 17  9 29 20  0  0.0  .172069296241D-03 -.250111042988D-11  .000000000000D+00
     .500000000000D+02  .128125000000D+02  .441089801732D-08 -.240212651325D+01
     .629574060440D-06  .855519867036D-02  .832416117191D-05  .515379096413D+04
     .504000000000D+06 -.158324837685D-06 -.148072644583D+01  .167638063431D-07
     .965421991987D+00  .223906250000D+03 -.238720465814D+00 -.794568811266D-08
    -.355014787791D-09  .100000000000D+01  .196800000000D+04  .000000000000D+00
     .240000000000D+01  .000000000000D+00 -.135041773319D-07  .500000000000D+02
     .496806000000D+06  .400000000000D+01
32 17  9 29 20  0  0.0 -.506873708218D-03 -.511590769747D-11  .000000000000D+00
     .150000000000D+02  .170312500000D+02  .494127725260D-08  .127110008516D+01
     .908970832825D-06  .141592603177D-02  .645965337753D-05  .515376157379D+04
     .504000000000D+06  .614672899246D-07 -.256709169658D+01  .651925802231D-07
     .957888235981D+00  .253781250000D+03 -.257769947649D+01 -.827141596625D-08
    -.417874549009D-10  .100000000000D+01  .196800000000D+04  .000000000000D+00
     .240000000000D+01  .000000000000D+00  .931322574615D-09  .150000000000D+02
     .496806000000D+06  .400000000000D+01
28 17  9 29 19 59 44.0  .649897381663D-03  .329691829393D-11  .000000000000D+00
     .740000000000D+02  .573750000000D+02  .373336979555D-08  .155373264258D+01
     .265799462795D-05  .198585634353D-01  .759586691856D-05  .515366210175D+04
     .503984000000D+06  .949949026108D-07 -.381646122647D+00 -.521540641785D-06
     .987948484408D+00  .245093750000D+03 -.156257769106D+01 -.777960976626D-08
     .135362781260D-09  .100000000000D+01  .196800000000D+04  .000000000000D+00
     .240000000000D+01  .000000000000D+00 -.111758708954D-07  .740000000000D+02
     .500166000000D+06  .400000000000D+01
13 17  9 29 19 59 44.0 -.921101309359D-04 -.568434188608D-12  .000000000000D+00
     .820000000000D+02  .177812500000D+02  .470698177897D-08 -.936432046611D+00
     .955536961555D-06  .351991353091D-02  .628270208836D-05  .515365208244D+04
     .503984000000D+06 -.614672899246D-07 -.244281139295D+01 -.353902578354D-07
     .969300266813D+00  .259468750000D+03  .173117349181D+01 -.814462497061D-08
    -.143220251413D-09  .100000000000D+01  .196800000000D+04  .000000000000D+00
     .240000000000D+01  .000000000000D+00 -.111758708954D-07  .820000000000D+02
     .500706000000D+06  .400000000000D+01
13 17  9 29 21 59 44.0 -.921143218875D-04 -.568434188608D-12  .000000000000D+00
     .880000000000D+02  .205312500000D+02  .474305471012D-08  .113847746193D+00
     .117532908916D-05  .352050468791D-02  .661239027977D-05  .515365333748D+04
     .511184000000D+06  .204890966415D-07 -.244287067331D+01  .447034835815D-07
     .969299495855D+00  .255625000000D+03  .173108917360D+01 -.817534053575D-08
    -.489306095849D-10  .100000000000D+01  .196800000000D+04  .000000000000D+00
     .240000000000D+01  .000000000000D+00 -.111758708954D-07  .880000000000D+02
     .504006000000D+06  .400000000000D+01
28 17  9 29 21 59 44.0  .649920664728D-03  .329691829393D-11  .000000000000D+00
     .760000000000D+02  .566250000000D+02  .358157775852D-08  .260391322613D+01
     .291317701340D-05  .198586714687D-01  .736676156521D-05  .515366202927D+04
     .511184000000D+06  .221654772758D-06 -.381698974952D+00 -.130385160446D-07
     .987950570530D+00  .246187500000D+03 -.156257748772D+01 -.735387774710D-08
    -.310727228751D-10  .100000000000D+01  .196800000000D+04  .000000000000D+00
     .240000000000D+01  .000000000000D+00 -.111758708954D-07  .760000000000D+02
     .504006000000D+06  .400000000000D+01
 1 17  9 29 22  0  0.0 -.276882201433D-05 -.136424205266D-11  .000000000000D+00
     .780000000000D+02 -.689062500000D+02  .439232581514D-08 -.503585025892D+00
    -.348128378391D-05  .705219339579D-02  .707618892193D-05  .515368140221D+04
     .511200000000D+06  .726431608200D-07  .163448536800D+01  .856816768646D-07
     .968351952111D+00  .248187500000D+03  .628643369337D+00 -.812712424163D-08
     .107147320259D-10  .100000000000D+01  .196800000000D+04  .000000000000D+00
     .240000000000D+01  .000000000000D+00  .558793544769D-08  .780000000000D+02
     .504006000000D+06  .400000000000D+01
 2 17  9 29 22  0  0.0  .318355392665D-03 -.920863385545D-11  .000000000000D+00
     .160000000000D+02 -.732500000000D+02  .493199115151D-08 -.933881390423D-01
    -.388734042645D-05  .171046557371D-01  .745616853237D-05  .515359437943D+04
     .511200000000D+06 -.169500708580D-06  .157842038142D+01  .240281224251D-06
     .947329178554D+00  .233562500000D+03 -.195307156273D+01 -.859571518890D-08
     .964325882329D-11  .100000000000D+01  .196800000000D+04  .000000000000D+00
     .240000000000D+01  .000000000000D+00 -.204890966415D-07  .160000000000D+02
     .504006000000D+06  .400000000000D+01
 3 17  9 29 22  0  0.0 -.620419159532D-04  .454747350886D-11  .000000000000D+00
     .200000000000D+02 -.728125000000D+01  .463090718159D-08 -.147621058303D+01
    -.404193997383D-06  .100759253837D-02  .951439142227D-05  .515364929390D+04
     .511200000000D+06  .186264514923D-08  .267726069095D+01 -.111758708954D-07
     .960467092841D+00  .196750000000D+03  .477059885356D+00 -.798640409436D-08
     .300369654459D-09  .100000000000D+01  .196800000000D+04  .000000000000D+00
     .240000000000D+01  .000000000000D+00  .232830643654D-08  .200000000000D+02
     .504006000000D+06  .400000000000D+01
 5 17  9 29 22  0  0.0 -.276956707239D-04  .136424205266D-11  .000000000000D+00
     .280000000000D+02 -.133437500000D+02  .490306137504D-08  .242915234335D+01
    -.627711415291D-06  .521051627584D-02  .100694596767D-04  .515356577682D+04
     .511200000000D+06 -.875443220139D-07  .265873354299D+01 -.428408384323D-07
     .947388123912D+00  .178875000000D+03  .594047962219D+00 -.802819154926D-08
     .331799535068D-09  .100000000000D+01  .196800000000D+04  .000000000000D+00
     .240000000000D+01  .000000000000D+00 -.107102096081D-07  .280000000000D+02
     .504006000000D+06  .400000000000D+01
